[{"OBJECT_NAME":"SWISSCUBE","OBJECT_ID":"2009-051B","EPOCH":"2026-03-09T16:23:13.335936","MEAN_MOTION":14.62259637,"ECCENTRICITY":0.00070545,"INCLINATION":98.4094,"RA_OF_ASC_NODE":334.8256,"ARG_OF_PERICENTER":152.7663,"MEAN_ANOMALY":207.3909,"EPHEMERIS_TYPE":0,"CLASSIFICATION_TYPE":"U","NORAD_CAT_ID":35932,"ELEMENT_SET_NO":999,"REV_AT_EPOCH":87461,"BSTAR":0.00032657986,"MEAN_MOTION_DOT":1.598e-5,"MEAN_MOTION_DDOT":0},{"OBJECT_NAME":"CZ-6A DEB","OBJECT_ID":"2022-151TX","EPOCH":"2026-03-09T01:09:53.582112","MEAN_MOTION":14.5180163,"ECCENTRICITY":0.00533811,"INCLINATION":98.5875,"RA_OF_ASC_NODE":95.1596,"ARG_OF_PERICENTER":319.2886,"MEAN_ANOMALY":40.4324,"EPHEMERIS_TYPE":0,"CLASSIFICATION_TYPE":"U","NORAD_CAT_ID":54982,"ELEMENT_SET_NO":999,"REV_AT_EPOCH":17353,"BSTAR":0.0029273099,"MEAN_MOTION_DOT":0.00011965,"MEAN_MOTION_DDOT":0}]
